 {"id": "b98ef1ef-4ce9-46a2-89c2-2f2b166db9e1", "latitud": "4.58787", "longitud": "-81.454578", "temperature": "26", "pressure": "1,007", "localTime": "Wed Nov 29 2023 14:55:07 GMT-0500 (hora est\u00e1ndar de Colombia)", "julianTime": "1701287707", "utcTime": "2:55:17 PM", "altitude": "475.01", "elevation": "-54.4", "TLE": {"Norad_Id": 56205, "International_Classification": "Unclassified", "International_Designation": "23054AD", "Epoch_Time_(ISO)": "2023-11-29T11:24:57Z", "First_Derivative_Mean_Motion": 0.00025355000000000006, "Second_Derivative_Mean_Motion": 0.0, "Inclination": 97.3873, "Right_Ascension_of_the_Ascending_Node": 226.8184, "Eccentricity": 0.0014559, "Argument_of_Perigee": 138.4503, "Mean_Anomaly": 221.7846, "Mean_Motion": 15.282887, "Revolution_Number_at_Epoch": 3539}}